{
  "type": "FeatureCollection",
  "features": [
    {
      "type": "Feature",
      "properties": {
        "norad_id": 66580,
        "name": "STARLINK-35872",
        "group": "last-30-days",
        "lat": 7.817974740324424,
        "lon": -8.579675124584949,
        "alt_km": 342.3669074575855,
        "timestamp": "2025-12-02T19:35:49.344161+00:00",
        "meta_object_name": "STARLINK-35872",
        "meta_object_id": "2025-268Z",
        "meta_epoch": "2025-12-02T12:00:05.998752",
        "meta_mean_motion": 15.765663,
        "meta_eccentricity": 0.0001732,
        "meta_inclination": 42.9975,
        "meta_ra_of_asc_node": 181.8174,
        "meta_arg_of_pericenter": 258.3926,
        "meta_mean_anomaly": 272.3436,
        "meta_ephemeris_type": 0,
        "meta_classification_type": "U",
        "meta_norad_cat_id": 66580,
        "meta_element_set_no": 999,
        "meta_rev_at_epoch": 302,
        "meta_bstar": -0.012002,
        "meta_mean_motion_dot": -0.01738743,
        "meta_mean_motion_ddot": 0,
        "tle_line1": "1 66580U 25268Z   25336.50006943 -.01738743  00000+0 -12002-1 0  9994",
        "tle_line2": "2 66580  42.9975 181.8174 0001732 258.3926 272.3436 15.76566300  3022"
      },
      "geometry": {
        "type": "Point",
        "coordinates": [
          -8.579675124584949,
          7.817974740324424
        ]
      }
    },
    {
      "type": "Feature",
      "properties": {
        "norad_id": 66581,
        "name": "STARLINK-35744",
        "group": "last-30-days",
        "lat": 6.521018336696088,
        "lon": -7.157984715800372,
        "alt_km": 342.6855477742556,
        "timestamp": "2025-12-02T19:35:49.344171+00:00",
        "meta_object_name": "STARLINK-35744",
        "meta_object_id": "2025-268AA",
        "meta_epoch": "2025-12-02T12:00:05.998752",
        "meta_mean_motion": 15.76516234,
        "meta_eccentricity": 0.0001603,
        "meta_inclination": 42.9978,
        "meta_ra_of_asc_node": 181.8118,
        "meta_arg_of_pericenter": 266.5295,
        "meta_mean_anomaly": 266.1486,
        "meta_ephemeris_type": 0,
        "meta_classification_type": "U",
        "meta_norad_cat_id": 66581,
        "meta_element_set_no": 999,
        "meta_rev_at_epoch": 297,
        "meta_bstar": -0.011453,
        "meta_mean_motion_dot": -0.01664892,
        "meta_mean_motion_ddot": 0,
        "tle_line1": "1 66581U 25268AA  25336.50006943 -.01664892  00000+0 -11453-1 0  9997",
        "tle_line2": "2 66581  42.9978 181.8118 0001603 266.5295 266.1486 15.76516234  2971"
      },
      "geometry": {
        "type": "Point",
        "coordinates": [
          -7.157984715800372,
          6.521018336696088
        ]
      }
    },
    {
      "type": "Feature",
      "properties": {
        "norad_id": 66582,
        "name": "STARLINK-35746",
        "group": "last-30-days",
        "lat": 5.205358019193115,
        "lon": -5.726925755103884,
        "alt_km": 343.393050515675,
        "timestamp": "2025-12-02T19:35:49.344181+00:00",
        "meta_object_name": "STARLINK-35746",
        "meta_object_id": "2025-268AB",
        "meta_epoch": "2025-12-02T12:00:05.998752",
        "meta_mean_motion": 15.7642791,
        "meta_eccentricity": 0.0001494,
        "meta_inclination": 42.9979,
        "meta_ra_of_asc_node": 181.8068,
        "meta_arg_of_pericenter": 278.3926,
        "meta_mean_anomaly": 256.3365,
        "meta_ephemeris_type": 0,
        "meta_classification_type": "U",
        "meta_norad_cat_id": 66582,
        "meta_element_set_no": 999,
        "meta_rev_at_epoch": 302,
        "meta_bstar": -0.011691,
        "meta_mean_motion_dot": -0.01689532,
        "meta_mean_motion_ddot": 0,
        "tle_line1": "1 66582U 25268AB  25336.50006943 -.01689532  00000+0 -11691-1 0  9990",
        "tle_line2": "2 66582  42.9979 181.8068 0001494 278.3926 256.3365 15.76427910  3023"
      },
      "geometry": {
        "type": "Point",
        "coordinates": [
          -5.726925755103884,
          5.205358019193115
        ]
      }
    },
    {
      "type": "Feature",
      "properties": {
        "norad_id": 66583,
        "name": "STARLINK-35941",
        "group": "last-30-days",
        "lat": 3.8923808202665184,
        "lon": -4.308797416587281,
        "alt_km": 343.511122166321,
        "timestamp": "2025-12-02T19:35:49.344194+00:00",
        "meta_object_name": "STARLINK-35941",
        "meta_object_id": "2025-268AC",
        "meta_epoch": "2025-12-02T12:00:05.998752",
        "meta_mean_motion": 15.76325623,
        "meta_eccentricity": 0.0001523,
        "meta_inclination": 42.9979,
        "meta_ra_of_asc_node": 181.8014,
        "meta_arg_of_pericenter": 273.6232,
        "meta_mean_anomaly": 263.113,
        "meta_ephemeris_type": 0,
        "meta_classification_type": "U",
        "meta_norad_cat_id": 66583,
        "meta_element_set_no": 999,
        "meta_rev_at_epoch": 302,
        "meta_bstar": -0.010984,
        "meta_mean_motion_dot": -0.0156186,
        "meta_mean_motion_ddot": 0,
        "tle_line1": "1 66583U 25268AC  25336.50006943 -.01561860  00000+0 -10984-1 0  9998",
        "tle_line2": "2 66583  42.9979 181.8014 0001523 273.6232 263.1130 15.76325623  3020"
      },
      "geometry": {
        "type": "Point",
        "coordinates": [
          -4.308797416587281,
          3.8923808202665184
        ]
      }
    },
    {
      "type": "Feature",
      "properties": {
        "norad_id": 66584,
        "name": "STARLINK-35939",
        "group": "last-30-days",
        "lat": 2.5865385103977436,
        "lon": -2.904715523879386,
        "alt_km": 343.56302755402885,
        "timestamp": "2025-12-02T19:35:49.344204+00:00",
        "meta_object_name": "STARLINK-35939",
        "meta_object_id": "2025-268AD",
        "meta_epoch": "2025-12-02T12:00:05.998752",
        "meta_mean_motion": 15.76249796,
        "meta_eccentricity": 0.0001572,
        "meta_inclination": 42.9981,
        "meta_ra_of_asc_node": 181.7967,
        "meta_arg_of_pericenter": 270.3003,
        "meta_mean_anomaly": 268.3953,
        "meta_ephemeris_type": 0,
        "meta_classification_type": "U",
        "meta_norad_cat_id": 66584,
        "meta_element_set_no": 999,
        "meta_rev_at_epoch": 302,
        "meta_bstar": -0.010199,
        "meta_mean_motion_dot": -0.01459155,
        "meta_mean_motion_ddot": 0,
        "tle_line1": "1 66584U 25268AD  25336.50006943 -.01459155  00000+0 -10199-1 0  9990",
        "tle_line2": "2 66584  42.9981 181.7967 0001572 270.3003 268.3953 15.76249796  3020"
      },
      "geometry": {
        "type": "Point",
        "coordinates": [
          -2.904715523879386,
          2.5865385103977436
        ]
      }
    },
    {
      "type": "Feature",
      "properties": {
        "norad_id": 66585,
        "name": "STARLINK-35963",
        "group": "last-30-days",
        "lat": 1.2766435591848844,
        "lon": -1.5006384713451624,
        "alt_km": 343.75217758870804,
        "timestamp": "2025-12-02T19:35:49.344214+00:00",
        "meta_object_name": "STARLINK-35963",
        "meta_object_id": "2025-268AE",
        "meta_epoch": "2025-12-02T12:00:05.998752",
        "meta_mean_motion": 15.76200938,
        "meta_eccentricity": 0.0001804,
        "meta_inclination": 42.998,
        "meta_ra_of_asc_node": 181.7922,
        "meta_arg_of_pericenter": 265.368,
        "meta_mean_anomaly": 275.3148,
        "meta_ephemeris_type": 0,
        "meta_classification_type": "U",
        "meta_norad_cat_id": 66585,
        "meta_element_set_no": 999,
        "meta_rev_at_epoch": 302,
        "meta_bstar": -0.010328,
        "meta_mean_motion_dot": -0.01472697,
        "meta_mean_motion_ddot": 0,
        "tle_line1": "1 66585U 25268AE  25336.50006943 -.01472697  00000+0 -10328-1 0  9991",
        "tle_line2": "2 66585  42.9980 181.7922 0001804 265.3680 275.3148 15.76200938  3023"
      },
      "geometry": {
        "type": "Point",
        "coordinates": [
          -1.5006384713451624,
          1.2766435591848844
        ]
      }
    },
    {
      "type": "Feature",
      "properties": {
        "norad_id": 66586,
        "name": "TJS-21",
        "group": "last-30-days",
        "lat": 48.95471914828285,
        "lon": -119.1422233787045,
        "alt_km": 27157.59008649937,
        "timestamp": "2025-12-02T19:35:49.344232+00:00",
        "meta_object_name": "TJS-21",
        "meta_object_id": "2025-269A",
        "meta_epoch": "2025-11-22T00:38:56.616288",
        "meta_mean_motion": 2.0099221,
        "meta_eccentricity": 0.75179873,
        "meta_inclination": 51.0366,
        "meta_ra_of_asc_node": 174.7096,
        "meta_arg_of_pericenter": 225.0489,
        "meta_mean_anomaly": 41.6572,
        "meta_ephemeris_type": 0,
        "meta_classification_type": "U",
        "meta_norad_cat_id": 66586,
        "meta_element_set_no": 999,
        "meta_rev_at_epoch": 2,
        "meta_bstar": 0.00053569978,
        "meta_mean_motion_dot": 3.197e-05,
        "meta_mean_motion_ddot": 0,
        "tle_line1": "1 66586U 25269A   25326.02704417  .00003197  00000+0  53570-3 0  9990",
        "tle_line2": "2 66586  51.0366 174.7096 7517987 225.0489  41.6572  2.00992210    24"
      },
      "geometry": {
        "type": "Point",
        "coordinates": [
          -119.1422233787045,
          48.95471914828285
        ]
      }
    }
  ]
}